{
    "links": {
        "self": "http://www.neowsapp.com/rest/v1/neo/3648207?api_key=iIulBulltgU6a56xZRHN4H3l9WmuAYTsLGpBGhQ2"
    },
    "id": "3648207",
    "neo_reference_id": "3648207",
    "name": "(2013 RF74)",
    "designation": "2013 RF74",
    "nasa_jpl_url": "http://ssd.jpl.nasa.gov/sbdb.cgi?sstr=3648207",
    "absolute_magnitude_h": 26.1,
    "estimated_diameter": {
        "kilometers": {
            "estimated_diameter_min": 0.0160160338,
            "estimated_diameter_max": 0.0358129403
        },
        "meters": {
            "estimated_diameter_min": 16.0160337979,
            "estimated_diameter_max": 35.8129403019
        },
        "miles": {
            "estimated_diameter_min": 0.0099518989,
            "estimated_diameter_max": 0.0222531225
        },
        "feet": {
            "estimated_diameter_min": 52.5460443254,
            "estimated_diameter_max": 117.4965270602
        }
    },
    "is_potentially_hazardous_asteroid": false,
    "close_approach_data": [
        {
            "close_approach_date": "2013-09-18",
            "close_approach_date_full": "2013-Sep-18 16:54",
            "epoch_date_close_approach": 1379523240000,
            "relative_velocity": {
                "kilometers_per_second": "10.5279877091",
                "kilometers_per_hour": "37900.7557529213",
                "miles_per_hour": "23550.055706586"
            },
            "miss_distance": {
                "astronomical": "0.0141551454",
                "lunar": "5.5063515606",
                "kilometers": "2117579.601380298",
                "miles": "1315802.9497041924"
            },
            "orbiting_body": "Earth"
        }
    ],
    "orbital_data": {
        "orbit_id": "7",
        "orbit_determination_date": "2017-04-06 08:44:40",
        "first_observation_date": "2013-09-15",
        "last_observation_date": "2013-09-21",
        "data_arc_in_days": 6,
        "observations_used": 33,
        "orbit_uncertainty": "8",
        "minimum_orbit_intersection": ".00751409",
        "jupiter_tisserand_invariant": "3.229",
        "epoch_osculation": "2456551.5",
        "eccentricity": ".5960049479202681",
        "semi_major_axis": "2.424056523847719",
        "inclination": "9.049307005961877",
        "ascending_node_longitude": "176.4489236166029",
        "orbital_period": "1378.518315021699",
        "perihelion_distance": ".9793068415960728",
        "perihelion_argument": "204.9119606221916",
        "aphelion_distance": "3.868806206099365",
        "perihelion_time": "2456574.192399338873",
        "mean_anomaly": "354.0738808668888",
        "mean_motion": ".2611499579491139",
        "equinox": "J2000",
        "orbit_class": {
            "orbit_class_type": "APO",
            "orbit_class_description": "Near-Earth asteroid orbits which cross the Earth’s orbit similar to that of 1862 Apollo",
            "orbit_class_range": "a (semi-major axis) > 1.0 AU; q (perihelion) < 1.017 AU"
        }
    },
    "is_sentry_object": false
}